CCSDS_OMM_VERS = 2.0
CREATION_DATE  = 
ORIGINATOR     = 

OBJECT_NAME    = TIANQI-39
OBJECT_ID      = 2026-010C
CENTER_NAME    = EARTH
REF_FRAME      = TEME
TIME_SYSTEM    = UTC
MEAN_ELEMENT_THEORY = SGP/SGP4

EPOCH          = 2026-02-06T07:10:29.596224
MEAN_MOTION    = 14.13053936
ECCENTRICITY   = .00164964
INCLINATION    = 44.9842
RA_OF_ASC_NODE = 305.6745
ARG_OF_PERICENTER = 72.1862
MEAN_ANOMALY   = 288.0775

EPHEMERIS_TYPE = 0
CLASSIFICATION_TYPE = U
NORAD_CAT_ID   = 67478
ELEMENT_SET_NO = 999
REV_AT_EPOCH   = 304
BSTAR          = .26540917E-3
MEAN_MOTION_DOT = .366E-5
MEAN_MOTION_DDOT = 0

CCSDS_OMM_VERS = 2.0
CREATION_DATE  = 
ORIGINATOR     = 

OBJECT_NAME    = TIANQI-40
OBJECT_ID      = 2026-010D
CENTER_NAME    = EARTH
REF_FRAME      = TEME
TIME_SYSTEM    = UTC
MEAN_ELEMENT_THEORY = SGP/SGP4

EPOCH          = 2026-02-06T07:04:39.970848
MEAN_MOTION    = 14.13802640
ECCENTRICITY   = .00123632
INCLINATION    = 44.9837
RA_OF_ASC_NODE = 305.6492
ARG_OF_PERICENTER = 73.1190
MEAN_ANOMALY   = 287.1003

EPHEMERIS_TYPE = 0
CLASSIFICATION_TYPE = U
NORAD_CAT_ID   = 67479
ELEMENT_SET_NO = 999
REV_AT_EPOCH   = 304
BSTAR          = .29033736E-3
MEAN_MOTION_DOT = .42E-5
MEAN_MOTION_DDOT = 0

CCSDS_OMM_VERS = 2.0
CREATION_DATE  = 
ORIGINATOR     = 

OBJECT_NAME    = SZ-20 MODULE
OBJECT_ID      = 2025-082C
CENTER_NAME    = EARTH
REF_FRAME      = TEME
TIME_SYSTEM    = UTC
MEAN_ELEMENT_THEORY = SGP/SGP4

EPOCH          = 2026-02-06T00:09:17.210016
MEAN_MOTION    = 15.62391867
ECCENTRICITY   = .00063092
INCLINATION    = 41.4797
RA_OF_ASC_NODE = 40.4795
ARG_OF_PERICENTER = 111.1873
MEAN_ANOMALY   = 248.9641

EPHEMERIS_TYPE = 0
CLASSIFICATION_TYPE = U
NORAD_CAT_ID   = 67481
ELEMENT_SET_NO = 999
REV_AT_EPOCH   = 27266
BSTAR          = .33813279E-3
MEAN_MOTION_DOT = .30646E-3
MEAN_MOTION_DDOT = 0

CCSDS_OMM_VERS = 2.0
CREATION_DATE  = 
ORIGINATOR     = 

OBJECT_NAME    = 2025-313BE
OBJECT_ID      = 2025-313BE
CENTER_NAME    = EARTH
REF_FRAME      = TEME
TIME_SYSTEM    = UTC
MEAN_ELEMENT_THEORY = SGP/SGP4

EPOCH          = 2026-02-05T17:21:15.948000
MEAN_MOTION    = 15.24973835
ECCENTRICITY   = .00089038
INCLINATION    = 97.4069
RA_OF_ASC_NODE = 113.6274
ARG_OF_PERICENTER = 100.3384
MEAN_ANOMALY   = 259.8858

EPHEMERIS_TYPE = 0
CLASSIFICATION_TYPE = U
NORAD_CAT_ID   = 67482
ELEMENT_SET_NO = 999
REV_AT_EPOCH   = 309
BSTAR          = .40964846E-2
MEAN_MOTION_DOT = .103503E-2
MEAN_MOTION_DDOT = 0

CCSDS_OMM_VERS = 2.0
CREATION_DATE  = 
ORIGINATOR     = 

OBJECT_NAME    = ION SCV-021
OBJECT_ID      = 2025-276DT
CENTER_NAME    = EARTH
REF_FRAME      = TEME
TIME_SYSTEM    = UTC
MEAN_ELEMENT_THEORY = SGP/SGP4

EPOCH          = 2026-02-03T04:28:21.905760
MEAN_MOTION    = 14.97380347
ECCENTRICITY   = .0011491
INCLINATION    = 97.5400
RA_OF_ASC_NODE = 109.5002
ARG_OF_PERICENTER = 211.3853
MEAN_ANOMALY   = 148.6685

EPHEMERIS_TYPE = 0
CLASSIFICATION_TYPE = U
NORAD_CAT_ID   = 67483
ELEMENT_SET_NO = 999
REV_AT_EPOCH   = 255
BSTAR          = .99302135E-4
MEAN_MOTION_DOT = .1099E-4
MEAN_MOTION_DDOT = 0

CCSDS_OMM_VERS = 2.0
CREATION_DATE  = 
ORIGINATOR     = 

OBJECT_NAME    = STARLINK-36551
OBJECT_ID      = 2026-012A
CENTER_NAME    = EARTH
REF_FRAME      = TEME
TIME_SYSTEM    = UTC
MEAN_ELEMENT_THEORY = SGP/SGP4

EPOCH          = 2026-02-06T06:00:02.000160
MEAN_MOTION    = 15.71428385
ECCENTRICITY   = .0001305
INCLINATION    = 42.9989
RA_OF_ASC_NODE = 134.3341
ARG_OF_PERICENTER = 282.1805
MEAN_ANOMALY   = 173.5469

EPHEMERIS_TYPE = 0
CLASSIFICATION_TYPE = U
NORAD_CAT_ID   = 67493
ELEMENT_SET_NO = 999
REV_AT_EPOCH   = 401
BSTAR          = -.16617969E-1
MEAN_MOTION_DOT = -.1936515E-1
MEAN_MOTION_DDOT = 0

CCSDS_OMM_VERS = 2.0
CREATION_DATE  = 
ORIGINATOR     = 

OBJECT_NAME    = STARLINK-36396
OBJECT_ID      = 2026-012B
CENTER_NAME    = EARTH
REF_FRAME      = TEME
TIME_SYSTEM    = UTC
MEAN_ELEMENT_THEORY = SGP/SGP4

EPOCH          = 2026-02-06T06:00:02.000160
MEAN_MOTION    = 15.57911898
ECCENTRICITY   = .0001337
INCLINATION    = 42.9992
RA_OF_ASC_NODE = 134.7360
ARG_OF_PERICENTER = 263.7941
MEAN_ANOMALY   = 30.5085

EPHEMERIS_TYPE = 0
CLASSIFICATION_TYPE = U
NORAD_CAT_ID   = 67494
ELEMENT_SET_NO = 999
REV_AT_EPOCH   = 401
BSTAR          = -.35071988E-1
MEAN_MOTION_DOT = -.2359272E-1
MEAN_MOTION_DDOT = 0

CCSDS_OMM_VERS = 2.0
CREATION_DATE  = 
ORIGINATOR     = 

OBJECT_NAME    = STARLINK-36550
OBJECT_ID      = 2026-012C
CENTER_NAME    = EARTH
REF_FRAME      = TEME
TIME_SYSTEM    = UTC
MEAN_ELEMENT_THEORY = SGP/SGP4

EPOCH          = 2026-02-06T06:00:02.000160
MEAN_MOTION    = 15.67314978
ECCENTRICITY   = .00012259
INCLINATION    = 42.9991
RA_OF_ASC_NODE = 134.4272
ARG_OF_PERICENTER = 279.4496
MEAN_ANOMALY   = 138.9919

EPHEMERIS_TYPE = 0
CLASSIFICATION_TYPE = U
NORAD_CAT_ID   = 67495
ELEMENT_SET_NO = 999
REV_AT_EPOCH   = 401
BSTAR          = -.24118909E-1
MEAN_MOTION_DOT = -.235484E-1
MEAN_MOTION_DDOT = 0

CCSDS_OMM_VERS = 2.0
CREATION_DATE  = 
ORIGINATOR     = 

OBJECT_NAME    = STARLINK-36534
OBJECT_ID      = 2026-012D
CENTER_NAME    = EARTH
REF_FRAME      = TEME
TIME_SYSTEM    = UTC
MEAN_ELEMENT_THEORY = SGP/SGP4

EPOCH          = 2026-02-06T06:00:02.000160
MEAN_MOTION    = 15.70551360
ECCENTRICITY   = .00012304
INCLINATION    = 42.9989
RA_OF_ASC_NODE = 134.3163
ARG_OF_PERICENTER = 280.3091
MEAN_ANOMALY   = 182.3712

EPHEMERIS_TYPE = 0
CLASSIFICATION_TYPE = U
NORAD_CAT_ID   = 67496
ELEMENT_SET_NO = 999
REV_AT_EPOCH   = 395
BSTAR          = -.17244158E-1
MEAN_MOTION_DOT = -.1935929E-1
MEAN_MOTION_DDOT = 0

CCSDS_OMM_VERS = 2.0
CREATION_DATE  = 
ORIGINATOR     = 

OBJECT_NAME    = STARLINK-36555
OBJECT_ID      = 2026-012E
CENTER_NAME    = EARTH
REF_FRAME      = TEME
TIME_SYSTEM    = UTC
MEAN_ELEMENT_THEORY = SGP/SGP4

EPOCH          = 2026-02-06T06:00:02.000160
MEAN_MOTION    = 15.70462508
ECCENTRICITY   = .0001295
INCLINATION    = 42.9989
RA_OF_ASC_NODE = 134.3300
ARG_OF_PERICENTER = 281.5353
MEAN_ANOMALY   = 175.7105

EPHEMERIS_TYPE = 0
CLASSIFICATION_TYPE = U
NORAD_CAT_ID   = 67497
ELEMENT_SET_NO = 999
REV_AT_EPOCH   = 401
BSTAR          = -.17301924E-1
MEAN_MOTION_DOT = -.1935261E-1
MEAN_MOTION_DDOT = 0

CCSDS_OMM_VERS = 2.0
CREATION_DATE  = 
ORIGINATOR     = 

OBJECT_NAME    = STARLINK-36081
OBJECT_ID      = 2026-012F
CENTER_NAME    = EARTH
REF_FRAME      = TEME
TIME_SYSTEM    = UTC
MEAN_ELEMENT_THEORY = SGP/SGP4

EPOCH          = 2026-02-06T06:00:02.000160
MEAN_MOTION    = 15.66820647
ECCENTRICITY   = .0001298
INCLINATION    = 42.9991
RA_OF_ASC_NODE = 134.4070
ARG_OF_PERICENTER = 279.0984
MEAN_ANOMALY   = 147.0027

EPHEMERIS_TYPE = 0
CLASSIFICATION_TYPE = U
NORAD_CAT_ID   = 67498
ELEMENT_SET_NO = 999
REV_AT_EPOCH   = 395
BSTAR          = -.24665579E-1
MEAN_MOTION_DOT = -.235925E-1
MEAN_MOTION_DDOT = 0

CCSDS_OMM_VERS = 2.0
CREATION_DATE  = 
ORIGINATOR     = 

OBJECT_NAME    = STARLINK-36558
OBJECT_ID      = 2026-012G
CENTER_NAME    = EARTH
REF_FRAME      = TEME
TIME_SYSTEM    = UTC
MEAN_ELEMENT_THEORY = SGP/SGP4

EPOCH          = 2026-02-06T06:00:02.000160
MEAN_MOTION    = 15.66817734
ECCENTRICITY   = .00011816
INCLINATION    = 42.9992
RA_OF_ASC_NODE = 134.4006
ARG_OF_PERICENTER = 281.7986
MEAN_ANOMALY   = 146.9778

EPHEMERIS_TYPE = 0
CLASSIFICATION_TYPE = U
NORAD_CAT_ID   = 67499
ELEMENT_SET_NO = 999
REV_AT_EPOCH   = 401
BSTAR          = -.2472336E-1
MEAN_MOTION_DOT = -.2363748E-1
MEAN_MOTION_DDOT = 0

