TIANQI-39               
1 67478U 26010C   26037.29895366  .00000366  00000+0  26541-3 0  9992
2 67478  44.9842 305.6745 0016496  72.1862 288.0775 14.13053936  3046
TIANQI-40               
1 67479U 26010D   26037.29490707  .00000420  00000+0  29034-3 0  9994
2 67479  44.9837 305.6492 0012363  73.1190 287.1003 14.13802640  3042
SZ-20 MODULE            
1 67481U 25082C   26037.00644919  .00030646  00000+0  33813-3 0  9993
2 67481  41.4797  40.4795 0006309 111.1873 248.9641 15.62391867272664
2025-313BE              
1 67482U 25313BE  26036.72310125  .00103503  00000+0  40965-2 0  9996
2 67482  97.4069 113.6274 0008903 100.3384 259.8858 15.24973835  3091
ION SCV-021             
1 67483U 25276DT  26034.18636465  .00001099  00000+0  99302-4 0  9999
2 67483  97.5400 109.5002 0011491 211.3853 148.6685 14.97380347  2557
STARLINK-36551          
1 67493U 26012A   26037.25002315 -.01936515  00000+0 -16618-1 0  9990
2 67493  42.9989 134.3341 0001305 282.1805 173.5469 15.71428385  4010
STARLINK-36396          
1 67494U 26012B   26037.25002315 -.02359272  00000+0 -35072-1 0  9996
2 67494  42.9992 134.7360 0001337 263.7941  30.5085 15.57911898  4017
STARLINK-36550          
1 67495U 26012C   26037.25002315 -.02354840  00000+0 -24119-1 0  9993
2 67495  42.9991 134.4272 0001225 279.4496 138.9919 15.67314978  4017
STARLINK-36534          
1 67496U 26012D   26037.25002315 -.01935929  00000+0 -17244-1 0  9997
2 67496  42.9989 134.3163 0001230 280.3091 182.3712 15.70551360  3959
STARLINK-36555          
1 67497U 26012E   26037.25002315 -.01935261  00000+0 -17302-1 0  9992
2 67497  42.9989 134.3300 0001295 281.5353 175.7105 15.70462508  4013
STARLINK-36081          
1 67498U 26012F   26037.25002315 -.02359250  00000+0 -24666-1 0  9993
2 67498  42.9991 134.4070 0001298 279.0984 147.0027 15.66820647  3951
STARLINK-36558          
1 67499U 26012G   26037.25002315 -.02363748  00000+0 -24723-1 0  9995
2 67499  42.9992 134.4006 0001181 281.7986 146.9778 15.66817734  4017
